{
    "links": {
        "self": "http://www.neowsapp.com/rest/v1/neo/3092332?api_key=iIulBulltgU6a56xZRHN4H3l9WmuAYTsLGpBGhQ2"
    },
    "id": "3092332",
    "neo_reference_id": "3092332",
    "name": "(2001 SA170)",
    "designation": "2001 SA170",
    "nasa_jpl_url": "http://ssd.jpl.nasa.gov/sbdb.cgi?sstr=3092332",
    "absolute_magnitude_h": 23.1,
    "estimated_diameter": {
        "kilometers": {
            "estimated_diameter_min": 0.063760979,
            "estimated_diameter_max": 0.1425738833
        },
        "meters": {
            "estimated_diameter_min": 63.7609789875,
            "estimated_diameter_max": 142.5738833281
        },
        "miles": {
            "estimated_diameter_min": 0.0396192233,
            "estimated_diameter_max": 0.0885912765
        },
        "feet": {
            "estimated_diameter_min": 209.1895703015,
            "estimated_diameter_max": 467.7620993781
        }
    },
    "is_potentially_hazardous_asteroid": false,
    "close_approach_data": [
        {
            "close_approach_date": "1995-07-14",
            "close_approach_date_full": "1995-Jul-14 16:42",
            "epoch_date_close_approach": 805740120000,
            "relative_velocity": {
                "kilometers_per_second": "19.7136206519",
                "kilometers_per_hour": "70969.0343467406",
                "miles_per_hour": "44097.3980361734"
            },
            "miss_distance": {
                "astronomical": "0.4642098396",
                "lunar": "180.5776276044",
                "kilometers": "69444803.237201652",
                "miles": "43150999.7931487176"
            },
            "orbiting_body": "Earth"
        },
        {
            "close_approach_date": "1998-08-03",
            "close_approach_date_full": "1998-Aug-03 10:06",
            "epoch_date_close_approach": 902138760000,
            "relative_velocity": {
                "kilometers_per_second": "11.1223198753",
                "kilometers_per_hour": "40040.3515510472",
                "miles_per_hour": "24879.5173290382"
            },
            "miss_distance": {
                "astronomical": "0.1809724531",
                "lunar": "70.3982842559",
                "kilometers": "27073093.512434897",
                "miles": "16822440.2417076986"
            },
            "orbiting_body": "Earth"
        },
        {
            "close_approach_date": "2001-09-23",
            "close_approach_date_full": "2001-Sep-23 03:21",
            "epoch_date_close_approach": 1001215260000,
            "relative_velocity": {
                "kilometers_per_second": "7.0737618144",
                "kilometers_per_hour": "25465.5425316739",
                "miles_per_hour": "15823.2978025281"
            },
            "miss_distance": {
                "astronomical": "0.0611839685",
                "lunar": "23.8005637465",
                "kilometers": "9152991.365747095",
                "miles": "5687405.106196111"
            },
            "orbiting_body": "Earth"
        },
        {
            "close_approach_date": "2004-10-23",
            "close_approach_date_full": "2004-Oct-23 11:06",
            "epoch_date_close_approach": 1098529560000,
            "relative_velocity": {
                "kilometers_per_second": "16.3500724894",
                "kilometers_per_hour": "58860.2609619394",
                "miles_per_hour": "36573.4771516006"
            },
            "miss_distance": {
                "astronomical": "0.3410993344",
                "lunar": "132.6876410816",
                "kilometers": "51027733.884657728",
                "miles": "31707163.5552155264"
            },
            "orbiting_body": "Earth"
        }
    ],
    "orbital_data": {
        "orbit_id": "19",
        "orbit_determination_date": "2020-01-12 04:53:40",
        "first_observation_date": "2001-09-20",
        "last_observation_date": "2001-10-24",
        "data_arc_in_days": 34,
        "observations_used": 99,
        "orbit_uncertainty": "7",
        "minimum_orbit_intersection": ".039713",
        "jupiter_tisserand_invariant": "3.572",
        "epoch_osculation": "2459000.5",
        "eccentricity": ".5044630828002843",
        "semi_major_axis": "2.102297981891459",
        "inclination": "2.627147519138915",
        "ascending_node_longitude": "189.9278675315027",
        "orbital_period": "1113.370825511007",
        "perihelion_distance": "1.041766260981677",
        "perihelion_argument": "156.9798468991267",
        "aphelion_distance": "3.162829702801241",
        "perihelion_time": "2458847.694507791681",
        "mean_anomaly": "49.40849529602752",
        "mean_motion": ".3233424046608818",
        "equinox": "J2000",
        "orbit_class": {
            "orbit_class_type": "AMO",
            "orbit_class_description": "Near-Earth asteroid orbits similar to that of 1221 Amor",
            "orbit_class_range": "1.017 AU < q (perihelion) < 1.3 AU"
        }
    },
    "is_sentry_object": false
}